CALSPHERE 1             
1 00900U 64063C   26064.72974836  .00000819  00000+0  82661-3 0  9995
2 00900  90.2157  69.3601 0023540 243.6897 178.6291 13.76492015 57197
CALSPHERE 2             
1 00902U 64063E   26064.57442819  .00000031  00000+0  33942-4 0  9996
2 00902  90.2281  73.3394 0019096 162.3962 320.9254 13.52891495842251
LCS 1                   
1 01361U 65034C   26064.46755959  .00000007  00000+0 -17954-3 0  9993
2 01361  32.1427  63.2845 0013176 114.8824 245.3044  9.89309937199611
TEMPSAT 1               
1 01512U 65065E   26064.74805740  .00000045  00000+0  71364-4 0  9997
2 01512  89.9929 212.5883 0069870 177.6786 250.3870 13.33588961946267
CALSPHERE 4A            
1 01520U 65065H   26064.67865528  .00000138  00000+0  24760-3 0  9998
2 01520  89.9039 123.5091 0070602  37.4266  81.6462 13.36258414948883
OPS 5712 (P/L 160)      
1 02826U 67053A   26064.70024372  .00009623  00000+0  14011-2 0  9990
2 02826  69.9166 291.6455 0004423 227.3962 132.6812 14.76104289 50957
OPS 5712 (P/L 153)      
1 02874U 67053H   26064.14610806  .00000055  00000+0  77933-4 0  9998
2 02874  69.9764 338.3084 0009008 314.5596  45.4774 13.96810730992259
RIGIDSPHERE 2 (LCS 4)   
1 05398U 71067E   26064.70409644  .00001084  00000+0  34788-3 0  9993
2 05398  87.6271   7.5144 0058381 214.5432 145.1969 14.37735233859011
COSMOS 2493 (SKRL-756 1)
1 39490U 13078A   26064.74947110  .00005261  00000+0  40399-3 0  9996
2 39490  82.4164   2.3399 0011400 229.5449 130.4782 15.01539575662436
COSMOS 2494 (SKRL-756 2)
1 39491U 13078B   26064.79756302  .00006092  00000+0  43610-3 0  9995
2 39491  82.4159 352.1116 0015485 189.9749 170.1172 15.04165579663261
