[{"OBJECT_NAME":"CALSPHERE 1","OBJECT_ID":"1964-063C","EPOCH":"2026-03-05T17:30:50.258304","MEAN_MOTION":13.76492015,"ECCENTRICITY":0.002354,"INCLINATION":90.2157,"RA_OF_ASC_NODE":69.3601,"ARG_OF_PERICENTER":243.6897,"MEAN_ANOMALY":178.6291,"EPHEMERIS_TYPE":0,"CLASSIFICATION_TYPE":"U","NORAD_CAT_ID":900,"ELEMENT_SET_NO":999,"REV_AT_EPOCH":5719,"BSTAR":0.00082661,"MEAN_MOTION_DOT":8.19e-6,"MEAN_MOTION_DDOT":0},{"OBJECT_NAME":"CALSPHERE 2","OBJECT_ID":"1964-063E","EPOCH":"2026-03-05T13:47:10.595616","MEAN_MOTION":13.52891495,"ECCENTRICITY":0.0019096,"INCLINATION":90.2281,"RA_OF_ASC_NODE":73.3394,"ARG_OF_PERICENTER":162.3962,"MEAN_ANOMALY":320.9254,"EPHEMERIS_TYPE":0,"CLASSIFICATION_TYPE":"U","NORAD_CAT_ID":902,"ELEMENT_SET_NO":999,"REV_AT_EPOCH":84225,"BSTAR":3.3942e-5,"MEAN_MOTION_DOT":3.1e-7,"MEAN_MOTION_DDOT":0},{"OBJECT_NAME":"LCS 1","OBJECT_ID":"1965-034C","EPOCH":"2026-03-05T11:13:17.148576","MEAN_MOTION":9.89309937,"ECCENTRICITY":0.0013176,"INCLINATION":32.1427,"RA_OF_ASC_NODE":63.2845,"ARG_OF_PERICENTER":114.8824,"MEAN_ANOMALY":245.3044,"EPHEMERIS_TYPE":0,"CLASSIFICATION_TYPE":"U","NORAD_CAT_ID":1361,"ELEMENT_SET_NO":999,"REV_AT_EPOCH":19961,"BSTAR":-0.00017954,"MEAN_MOTION_DOT":7.0e-8,"MEAN_MOTION_DDOT":0},{"OBJECT_NAME":"TEMPSAT 1","OBJECT_ID":"1965-065E","EPOCH":"2026-03-05T17:57:12.159360","MEAN_MOTION":13.33588961,"ECCENTRICITY":0.006987,"INCLINATION":89.9929,"RA_OF_ASC_NODE":212.5883,"ARG_OF_PERICENTER":177.6786,"MEAN_ANOMALY":250.387,"EPHEMERIS_TYPE":0,"CLASSIFICATION_TYPE":"U","NORAD_CAT_ID":1512,"ELEMENT_SET_NO":999,"REV_AT_EPOCH":94626,"BSTAR":7.1364e-5,"MEAN_MOTION_DOT":4.5e-7,"MEAN_MOTION_DDOT":0},{"OBJECT_NAME":"CALSPHERE 4A","OBJECT_ID":"1965-065H","EPOCH":"2026-03-05T16:17:15.816192","MEAN_MOTION":13.36258414,"ECCENTRICITY":0.0070602,"INCLINATION":89.9039,"RA_OF_ASC_NODE":123.5091,"ARG_OF_PERICENTER":37.4266,"MEAN_ANOMALY":81.6462,"EPHEMERIS_TYPE":0,"CLASSIFICATION_TYPE":"U","NORAD_CAT_ID":1520,"ELEMENT_SET_NO":999,"REV_AT_EPOCH":94888,"BSTAR":0.0002476,"MEAN_MOTION_DOT":1.38e-6,"MEAN_MOTION_DDOT":0},{"OBJECT_NAME":"OPS 5712 (P/L 160)","OBJECT_ID":"1967-053A","EPOCH":"2026-03-05T16:48:21.057408","MEAN_MOTION":14.76104289,"ECCENTRICITY":0.0004423,"INCLINATION":69.9166,"RA_OF_ASC_NODE":291.6455,"ARG_OF_PERICENTER":227.3962,"MEAN_ANOMALY":132.6812,"EPHEMERIS_TYPE":0,"CLASSIFICATION_TYPE":"U","NORAD_CAT_ID":2826,"ELEMENT_SET_NO":999,"REV_AT_EPOCH":5095,"BSTAR":0.0014011,"MEAN_MOTION_DOT":9.623e-5,"MEAN_MOTION_DDOT":0},{"OBJECT_NAME":"OPS 5712 (P/L 153)","OBJECT_ID":"1967-053H","EPOCH":"2026-03-05T03:30:23.736384","MEAN_MOTION":13.9681073,"ECCENTRICITY":0.00090084,"INCLINATION":69.9764,"RA_OF_ASC_NODE":338.3084,"ARG_OF_PERICENTER":314.5596,"MEAN_ANOMALY":45.4774,"EPHEMERIS_TYPE":0,"CLASSIFICATION_TYPE":"U","NORAD_CAT_ID":2874,"ELEMENT_SET_NO":999,"REV_AT_EPOCH":99225,"BSTAR":7.7932518e-5,"MEAN_MOTION_DOT":5.5e-7,"MEAN_MOTION_DDOT":0},{"OBJECT_NAME":"RIGIDSPHERE 2 (LCS 4)","OBJECT_ID":"1971-067E","EPOCH":"2026-03-05T16:53:53.932416","MEAN_MOTION":14.37735233,"ECCENTRICITY":0.0058381,"INCLINATION":87.6271,"RA_OF_ASC_NODE":7.5144,"ARG_OF_PERICENTER":214.5432,"MEAN_ANOMALY":145.1969,"EPHEMERIS_TYPE":0,"CLASSIFICATION_TYPE":"U","NORAD_CAT_ID":5398,"ELEMENT_SET_NO":999,"REV_AT_EPOCH":85901,"BSTAR":0.00034788,"MEAN_MOTION_DOT":1.084e-5,"MEAN_MOTION_DDOT":0},{"OBJECT_NAME":"COSMOS 2493 (SKRL-756 1)","OBJECT_ID":"2013-078A","EPOCH":"2026-03-05T17:59:14.303040","MEAN_MOTION":15.01539575,"ECCENTRICITY":0.00114,"INCLINATION":82.4164,"RA_OF_ASC_NODE":2.3399,"ARG_OF_PERICENTER":229.5449,"MEAN_ANOMALY":130.4782,"EPHEMERIS_TYPE":0,"CLASSIFICATION_TYPE":"U","NORAD_CAT_ID":39490,"ELEMENT_SET_NO":999,"REV_AT_EPOCH":66243,"BSTAR":0.00040399,"MEAN_MOTION_DOT":5.261e-5,"MEAN_MOTION_DDOT":0},{"OBJECT_NAME":"COSMOS 2494 (SKRL-756 2)","OBJECT_ID":"2013-078B","EPOCH":"2026-03-05T19:08:29.444928","MEAN_MOTION":15.04165579,"ECCENTRICITY":0.0015485,"INCLINATION":82.4159,"RA_OF_ASC_NODE":352.1116,"ARG_OF_PERICENTER":189.9749,"MEAN_ANOMALY":170.1172,"EPHEMERIS_TYPE":0,"CLASSIFICATION_TYPE":"U","NORAD_CAT_ID":39491,"ELEMENT_SET_NO":999,"REV_AT_EPOCH":66326,"BSTAR":0.0004361,"MEAN_MOTION_DOT":6.092e-5,"MEAN_MOTION_DDOT":0}]
